[{"OBJECT_NAME":"STARLINK-34182","OBJECT_ID":"2025-101V","EPOCH":"2026-03-09T04:16:46.688160","MEAN_MOTION":15.27635276,"ECCENTRICITY":0.0002042,"INCLINATION":43.0053,"RA_OF_ASC_NODE":357.6816,"ARG_OF_PERICENTER":294.4039,"MEAN_ANOMALY":65.66,"EPHEMERIS_TYPE":0,"CLASSIFICATION_TYPE":"U","NORAD_CAT_ID":64013,"ELEMENT_SET_NO":999,"REV_AT_EPOCH":4701,"BSTAR":0.0021295791,"MEAN_MOTION_DOT":0.00058909,"MEAN_MOTION_DDOT":0},{"OBJECT_NAME":"SL-3 R\/B","OBJECT_ID":"1982-079B","EPOCH":"2026-03-09T22:18:18.158976","MEAN_MOTION":15.24805533,"ECCENTRICITY":0.00250364,"INCLINATION":81.1481,"RA_OF_ASC_NODE":192.7939,"ARG_OF_PERICENTER":164.0597,"MEAN_ANOMALY":196.143,"EPHEMERIS_TYPE":0,"CLASSIFICATION_TYPE":"U","NORAD_CAT_ID":13403,"ELEMENT_SET_NO":999,"REV_AT_EPOCH":37773,"BSTAR":0.00032485557,"MEAN_MOTION_DOT":8.157e-5,"MEAN_MOTION_DDOT":0}]
